IRIDIUM 26              
1 24903U 97043A   26017.55174330  .00000334  00000+0  10522-3 0  9997
2 24903  86.3946  20.5037 0002418  90.0016 270.1459 14.37359622487531
IRIDIUM 22              
1 24907U 97043E   26017.52082950  .00000293  00000+0  93975-4 0  9992
2 24907  86.3946  24.2405 0002239  86.9680 273.1773 14.36149305487533
DUMMY MASS 1            
1 24925U 97048A   26017.53409019  .00000338  00000+0  34348-4 0  9996
2 24925  86.3318  36.1333 0008971 102.0363 258.1868 14.87215651536981
DUMMY MASS 2            
1 24926U 97048B   26017.53206859  .00000333  00000+0  34049-4 0  9997
2 24926  86.3317  37.7817 0009565 111.5733 248.6512 14.86965981536753
IRIDIUM 29              
1 24944U 97051A   26017.60474318  .00000309  00000+0  98239-4 0  9990
2 24944  86.3920  53.8769 0002056  89.3159 270.8274 14.36692648484059
IRIDIUM 33              
1 24946U 97051C   26017.54673291  .00000262  00000+0  84864-4 0  9993
2 24946  86.3834  53.1838 0010034  97.0047 263.2291 14.35063823483489
IRIDIUM 28              
1 24948U 97051E   26017.51291337  .00000326  00000+0  10209-3 0  9991
2 24948  86.3926  51.3091 0002759  93.2216 266.9298 14.37593565484633
IRIDIUM 36              
1 24967U 97056C   26017.44285441  .00000357  00000+0  11186-3 0  9997
2 24967  86.3940  82.9699 0002426  90.6938 269.4537 14.37819519483001
